#aV2014  2 23  0  0  0.00000000     288 DD+AD WGS84 FIT  NGA
## 1781      0.00000000   300.00000000 56711 0.0000000000000
+   31     1  2  3  4  5  6  7  8  9 10 11 12 13 14 15 16 17
+         18 19 20 21 22 23 24 25 26 27 28 29 31 32  0  0  0
+          0  0  0  0  0  0  0  0  0  0  0  0  0  0  0  0  0
+          0  0  0  0  0  0  0  0  0  0  0  0  0  0  0  0  0
+          0  0  0  0  0  0  0  0  0  0  0  0  0  0  0  0  0
++         2  2  2  2  2  2  2  2  2  2  2  2  2  2  2  2  2
++         2  2  2  2  2  2  2  2  2  2  2  2  2  2  0  0  0
++         0  0  0  0  0  0  0  0  0  0  0  0  0  0  0  0  0
++         0  0  0  0  0  0  0  0  0  0  0  0  0  0  0  0  0
++         0  0  0  0  0  0  0  0  0  0  0  0  0  0  0  0  0
%c cc cc ccc ccc cccc cccc cccc cccc ccccc ccccc ccccc ccccc
%c cc cc ccc ccc cccc cccc cccc cccc ccccc ccccc ccccc ccccc
%f  0.0000000  0.000000000  0.00000000000  0.000000000000000
%f  0.0000000  0.000000000  0.00000000000  0.000000000000000
%i    0    0    0    0      0      0      0      0         0
%i    0    0    0    0      0      0      0      0         0
/*      NGA, ST. LOUIS,MO.                                  
/*   EPHEMERIS COMPUTED FROM  1 DAYS OF DATA                
/*   EPOCHA SMOOTHER                                       
/* CCCCCCCCCCCCCCCCCCCCCCCCCCCCCCCCCCCCCCCCCCCCCCCCCCCCCCCCC
*  2014  2 23  5  0  0.00000000
P  1  13335.797086 -18344.353773  13690.404677      0.716464                    
V  1  -1122.745196  17598.276365  24736.347302      0.020575                    
P  2 -14927.588459  -4725.244139 -21210.018051    480.223037                    
V  2   4621.771222 -27229.286845   2279.566787      0.021610                    
P  3  23350.935557   4938.534099  11284.417080    329.451912                    
V  3  11174.678151  10659.166281 -26364.223077      0.050332                    
P  4  -8370.022179 -19551.157187 -16068.616956      5.720533                    
V  4   5987.966569 -19239.011676  20927.212734      0.002702                    
P  5 -24870.783067   1533.610713  -9465.307255   -387.348980                    
V  5  10333.059797  -6581.343597 -28183.826807      0.016734                    
P  6      0.000000      0.000000      0.000000 999999.999999                    
V  6      0.000000      0.000000      0.000000 999999.999999                    
P  7   5759.521152 -25743.193043   -308.593421    316.924164                    
V  7   2507.960223   1027.932867 -32264.420162      0.041650                    
P  8   -146.925785 -23732.025843  11409.590307     12.022941                    
V  8   6126.081595 -13192.738104 -28297.924176      0.000985                    
P  9  -2653.554531 -23837.037766  10699.463174    307.530475                    
V  9   4807.633652 -13750.803970 -28220.317652      0.028170                    
P 10 -11633.468268 -12183.649347 -20949.849430   -115.482174                    
V 10  24307.892616  -8750.062783  -8122.387675     -0.015940                    
P 11  13953.105579 -11573.516812  18872.489632   -466.664592                    
V 11   5190.821094  24903.654735  11372.130269     -0.032254                    
P 12 -22955.466606  11474.875671  -6428.411937    188.153014                    
V 12  -8374.172846    389.744190  31064.207989      0.023463                    
P 13   2372.798475 -17279.414536 -20121.987842     26.800760                    
V 13  17971.624630  17756.502606 -13360.956633     -0.038577                    
P 14  13088.693009  21577.196450   8721.400094    195.986795                    
V 14  -9085.709738  -6085.379867  29273.441074     -0.032144                    
P 15 -18785.744085   2472.799505  18671.090224   -164.651302                    
V 15 -17532.890313 -16170.214455 -15166.396929     -0.020931                    
P 16  25066.051437   -775.356534  -9313.740532   -230.420698                    
V 16 -10772.141134   4652.469817 -29141.861468      0.015213                    
P 17 -14654.856831 -21030.755603   7658.713546    -70.742282                    
V 17   8297.065219   4781.128399  29763.614092     -0.034462                    
P 18  -6266.143646  17568.895655  19225.246324    303.523103                    
V 18 -22978.280117   6244.563531 -13841.203954      0.022423                    
P 19  18843.510493    881.801620  18743.747375   -440.635640                    
V 19  15702.402966  18058.288780 -16092.901630     -0.024187                    
P 20  20771.082938 -14769.009317  -7525.859844    164.172635                    
V 20  10062.404715   -228.674296  29028.285139      0.033911                    
P 21  -3368.598930  26045.228670   1953.049866   -345.562256                    
V 21  -4354.055414   1021.910247 -31297.044999     -0.022327                    
P 22   7238.990802  14480.107032  21264.680727    215.164735                    
V 22 -25089.767006   9085.948468   2219.482153      0.025841                    
P 23  12813.329912  -8989.884889 -21396.602783      1.604696                    
V 23  20370.304190  18306.174023   4087.385477     -0.032273                    
P 24 -14780.355925  13765.207632  17188.030558    -23.818556                    
V 24   2089.710840 -21873.058985  19387.072785     -0.006679                    
P 25 -13150.448393  16328.047581 -16288.846836     15.826478                    
V 25 -19968.322028   5287.389610  21620.166418      0.017086                    
P 26 -21137.639693 -11088.947397  11313.121659    157.201323                    
V 26  -9096.814333 -12394.982935 -27257.250750     -0.107864                    
P 27  22456.963298  10664.905138   9403.454082    -19.367076                    
V 27   7435.031776   9648.814395 -28656.754616     -0.008912                    
P 28  -2967.248498 -14675.177383  22542.313765    334.658832                    
V 28  26121.532706  -7172.417545  -1402.667965      0.029680                    
P 29  -4134.188136  15887.949185 -20844.020038    513.146113                    
V 29 -19690.156960 -17804.218825  -9602.252924      0.029527                    
P 31   9124.679818  16371.733040 -18530.936369    333.421308                    
V 31  -6545.032795  23057.956409  17305.622256      0.002377                    
P 32  25729.867655  -4530.502728   2727.671208   -480.893971                    
V 32  -2431.970553   4409.894470  31566.666669      0.066504                    
EOF
